1 50465U 21131A   23133.82845296  .00000280  00000-0  11303-3 0  9995
2 50465  98.5400 212.4375 0001340  87.9791 272.1547 14.35367026 72263